H1 CPF 01  gfz 2021 07 12 00  6931 tandemx   
H2 1003001  6202 36605    2021 07 12 00 59 42 2021 07 17 00 00 42   120 1 1  0 0 0
H9
10 0 59408  33102.000000  0    2512117.580  -3757762.930  -5206174.388
10 0 59408  33222.000000  0    1938391.336  -3282823.425  -5745057.798
10 0 59408  33342.000000  0    1339932.921  -2740667.442  -6183551.242
10 0 59408  33462.000000  0     728243.350  -2140410.300  -6514083.369
10 0 59408  33582.000000  0     114862.529  -1492353.040  -6730959.926
10 0 59408  33702.000000  0    -488844.766   -807804.614  -6830451.191
10 0 59408  33822.000000  0   -1071893.807    -98886.893  -6810848.289
10 0 59408  33942.000000  0   -1623874.991    621675.032  -6672488.853
10 0 59408  34062.000000  0   -2135135.377   1340775.188  -6417751.488
10 0 59408  34182.000000  0   -2596943.563   2045159.130  -6051019.366
10 0 59408  34302.000000  0   -3001637.497   2721662.673  -5578613.654
10 0 59408  34422.000000  0   -3342752.658   3357455.521  -5008696.092
10 0 59408  34542.000000  0   -3615129.273   3940284.979  -4351139.820
10 0 59408  34662.000000  0   -3814994.913   4458714.923  -3617368.048
10 0 59408  34782.000000  0   -3940019.210   4902354.289  -2820163.571
10 0 59408  34902.000000  0   -3989341.454   5262070.971  -1973452.808
10 0 59408  35022.000000  0   -3963570.495   5530186.642  -1092065.630
10 0 59408  35142.000000  0   -3864754.642   5700647.721   -191473.574
10 0 59408  35262.000000  0   -3696321.255   5769164.163    712487.384
10 0 59408  35382.000000  0   -3462989.121   5733314.985   1603903.012
10 0 59408  35502.000000  0   -3170653.030   5592617.049   2467071.612
10 0 59408  35622.000000  0   -2826243.358   5348552.056   3286790.566
10 0 59408  35742.000000  0   -2437566.539   5004553.434   4048630.169
10 0 59408  35862.000000  0   -2013130.330   4565955.142   4739191.666
10 0 59408  35982.000000  0   -1561958.438   4039902.921   5346344.469
10 0 59408  36102.000000  0   -1093398.055   3435230.071   5859438.458
10 0 59408  36222.000000  0    -616925.840   2762300.884   6269486.347
10 0 59408  36342.000000  0    -141956.743   2032826.213   6569314.879
10 0 59408  36462.000000  0     322340.885   1259655.976   6753684.443
10 0 59408  36582.000000  0     767221.695    456549.808   6819375.380
10 0 59408  36702.000000  0    1184526.975   -362067.662   6765239.795
10 0 59408  36822.000000  0    1566833.420  -1181365.070   6592221.480
10 0 59408  36942.000000  0    1907585.191  -1986372.600   6303340.547
10 0 59408  37062.000000  0    2201206.969  -2762255.385   5903644.853
10 0 59408  37182.000000  0    2443196.636  -3494588.780   5400127.054
10 0 59408  37302.000000  0    2630195.315  -4169629.600   4801607.388
10 0 59408  37422.000000  0    2760033.867  -4774578.694   4118585.102
10 0 59408  37542.000000  0    2831755.923  -5297830.671   3363057.952
10 0 59408  37662.000000  0    2845615.103  -5729204.363   2548313.039
10 0 59408  37782.000000  0    2803046.632  -6060149.216   1688691.309
10 0 59408  37902.000000  0    2706613.329  -6283920.071    799330.785
10 0 59408  38022.000000  0    2559929.323  -6395718.902   -104105.041
10 0 59408  38142.000000  0    2367561.621  -6392799.737  -1005711.698
10 0 59408  38262.000000  0    2134911.112  -6274530.314  -1889634.185
10 0 59408  38382.000000  0    1868077.015  -6042411.341  -2740353.124
10 0 59408  38502.000000  0    1573707.713  -5700053.187  -3542964.830
10 0 59408  38622.000000  0    1258842.894  -5253107.461  -4283443.905
10 0 59408  38742.000000  0     930753.188  -4709162.025  -4948886.408
10 0 59408  38862.000000  0     596778.553  -4077600.510  -5527729.117
10 0 59408  38982.000000  0     264169.754  -3369430.220  -6009942.231
10 0 59408  39102.000000  0     -60063.637  -2597082.235  -6387192.394
10 0 59408  39222.000000  0    -369295.676  -1774188.820  -6652975.061
10 0 59408  39342.000000  0    -657414.510   -915342.396  -6802715.831
10 0 59408  39462.000000  0    -918938.487    -35839.431  -6833841.252
10 0 59408  39582.000000  0   -1149116.985    848586.832  -6745817.107
10 0 59408  39702.000000  0   -1344014.563   1722040.234  -6540156.225
10 0 59408  39822.000000  0   -1500576.724   2568740.043  -6220395.055
10 0 59408  39942.000000  0   -1616677.278   3373300.083  -5792041.098
10 0 59408  40062.000000  0   -1691146.579   4121006.115  -5262487.775
10 0 59408  40182.000000  0   -1723779.583   4798085.574  -4640898.586
10 0 59408  40302.000000  0   -1715324.253   5391966.494  -3938059.484
10 0 59408  40422.000000  0   -1667449.229   5891518.361  -3166200.395
10 0 59408  40542.000000  0   -1582691.130   6287269.925  -2338789.606
10 0 59408  40662.000000  0   -1464383.267   6571600.692  -1470303.009
10 0 59408  40782.000000  0   -1316566.256   6738898.802   -575970.401
10 0 59408  40902.000000  0   -1143882.941   6785682.042    328493.990
10 0 59408  41022.000000  0    -951459.337   6710679.139   1227174.828
10 0 59408  41142.000000  0    -744775.239   6514864.639   2104246.941
10 0 59408  41262.000000  0    -529527.453   6201445.575   2944263.325
10 0 59408  41382.000000  0    -311489.594   5775804.717   3732433.535
10 0 59408  41502.000000  0     -96372.668   5245402.681   4454888.837
10 0 59408  41622.000000  0     110311.162   4619638.442   5098932.885
10 0 59408  41742.000000  0     303379.314   3909668.618   5653262.464
10 0 59408  41862.000000  0     478098.664   3128201.861   6108161.715
10 0 59408  41982.000000  0     630292.740   2289262.734   6455668.718
10 0 59408  42102.000000  0     756434.358   1407934.321   6689708.400
10 0 59408  42222.000000  0     853722.168    500083.271   6806192.977
10 0 59408  42342.000000  0     920139.633   -417926.196   6803088.031
10 0 59408  42462.000000  0     954495.529  -1329526.233   6680447.034
10 0 59408  42582.000000  0     956445.282  -2218244.370   6440410.921
10 0 59408  42702.000000  0     926492.824  -3068001.452   6087173.688
10 0 59408  42822.000000  0     865972.396  -3863405.014   5626912.434
10 0 59408  42942.000000  0     777011.596  -4590029.724   5067683.381
10 0 59408  43062.000000  0     662476.909  -5234683.015   4419287.688
10 0 59408  43182.000000  0     525901.603  -5785653.266   3693106.065
10 0 59408  43302.000000  0     371396.834  -6232933.222   2901901.643
10 0 59408  43422.000000  0     203548.335  -6568412.039   2059595.264
10 0 59408  43542.000000  0      27300.778  -6786030.994   1181017.992
10 0 59408  43662.000000  0    -152166.751  -6881901.957    281645.187
10 0 59408  43782.000000  0    -329572.433  -6854381.927   -622685.871
10 0 59408  43902.000000  0    -499665.369  -6704100.008  -1516064.924
10 0 59408  44022.000000  0    -657358.022  -6433938.379  -2382796.582
10 0 59408  44142.000000  0    -797854.573  -6048969.873  -3207682.083
10 0 59408  44262.000000  0    -916772.237  -5556352.625  -3976290.145
10 0 59408  44382.000000  0   -1010252.096  -4965184.008  -4675210.242
10 0 59408  44502.000000  0   -1075056.837  -4286319.670  -5292282.257
10 0 59408  44622.000000  0   -1108653.580  -3532163.475  -5816800.602
10 0 59408  44742.000000  0   -1109279.939  -2716432.684  -6239690.346
10 0 59408  44862.000000  0   -1075992.418  -1853903.169  -6553653.201
10 0 59408  44982.000000  0   -1008696.642   -960140.582  -6753281.735
10 0 59408  45102.000000  0    -908159.385    -51222.223  -6835142.919
10 0 59408  45222.000000  0    -776001.319    856546.966  -6797830.029
10 0 59408  45342.000000  0    -614671.038   1746919.071  -6641983.625
10 0 59408  45462.000000  0    -427401.549   2603986.300  -6370281.797
10 0 59408  45582.000000  0    -218148.979   3412459.153  -5987400.601
10 0 59408  45702.000000  0       8486.556   4157937.122  -5499942.676
10 0 59408  45822.000000  0     247355.842   4827165.121  -4916333.631
10 0 59408  45942.000000  0     492869.514   5408273.773  -4246688.480
10 0 59408  46062.000000  0     739119.911   5890998.510  -3502646.557
10 0 59408  46182.000000  0     980013.323   6266871.477  -2697177.239
10 0 59408  46302.000000  0    1209409.925   6529382.623  -1844359.164
10 0 59408  46422.000000  0    1421268.314   6674105.419   -959135.205
10 0 59408  46542.000000  0    1609791.283   6698782.696    -57047.546
10 0 59408  46662.000000  0    1769568.694   6603368.762    846041.559
10 0 59408  46782.000000  0    1895713.055   6390027.391   1734236.096
10 0 59408  46902.000000  0    1983985.487   6063086.137   2591894.139
10 0 59408  47022.000000  0    2030908.557   5628947.513   3403911.112
10 0 59408  47142.000000  0    2033862.899   5095959.486   4155993.451
10 0 59408  47262.000000  0    1991164.277   4474246.997   4834915.806
10 0 59408  47382.000000  0    1902120.573   3775508.069   5428756.006
10 0 59408  47502.000000  0    1767066.225   3012783.941   5927100.046
10 0 59408  47622.000000  0    1587375.750   2200209.652   6321220.558
10 0 59408  47742.000000  0    1365454.429   1352746.104   6604225.035
10 0 59408  47862.000000  0    1104707.003    485900.133   6771169.674
10 0 59408  47982.000000  0     809485.299   -384559.432   6819139.307
10 0 59408  48102.000000  0     485015.476  -1242887.534   6747296.722
10 0 59408  48222.000000  0     137305.271  -2073648.096   6556896.822
10 0 59408  48342.000000  0    -226967.339  -2861991.735   6251266.015
10 0 59408  48462.000000  0    -600581.359  -3593922.696   5835746.051
10 0 59408  48582.000000  0    -975912.958  -4256547.794   5317604.270
10 0 59408  48702.000000  0   -1345087.902  -4838306.806   4705914.738
10 0 59408  48822.000000  0   -1700145.334  -5329182.712   4011407.173
10 0 59408  48942.000000  0   -2033207.646  -5720884.547   3246282.001
10 0 59408  49062.000000  0   -2336652.925  -6006996.195   2423996.118
10 0 59408  49182.000000  0   -2603285.815  -6183088.616   1559024.330
10 0 59408  49302.000000  0   -2826502.155  -6246793.804    666599.835
10 0 59408  49422.000000  0   -3000443.591  -6197837.686   -237561.117
10 0 59408  49542.000000  0   -3120138.129  -6038030.848  -1137544.515
99
